OUFTI-1                 
1 41458U 16025C   22188.02755941  .00011369  00000+0  47853-3 0  9999
2 41458  98.1880 356.1083 0141206 198.0596 161.5591 15.14857604340541
E-ST@R-II               
1 41459U 16025D   22188.18960213  .00009369  00000+0  40419-3 0  9995
2 41459  98.1880 354.8087 0144528 201.9112 157.5895 15.13748395340489
AAUSAT 4                
1 41460U 16025E   22187.76772565  .00016004  00000+0  60667-3 0  9992
2 41460  98.1797   0.7302 0124829 178.8796 181.2723 15.19904661340870
AIST-2D (RS-48)         
1 41465U 16026B   22188.25068378  .00007982  00000+0  18982-3 0  9991
2 41465  97.0541  63.9335 0011457  65.7823  54.2623 15.41832291346580
NUSAT-1 (FRESCO)        
1 41557U 16033B   22187.88245190  .00007821  00000+0  23204-3 0  9993
2 41557  97.3895 285.6175 0009264 311.9956 187.1345 15.35053978340365
NUSAT-2 (BATATA)        
1 41558U 16033C   22188.20238654  .00007437  00000+0  20790-3 0  9998
2 41558  97.4097 291.7494 0008563 298.4167 150.4144 15.36950783340683
CARTOSAT-2C             
1 41599U 16040A   22187.84724047  .00002067  00000+0  10114-3 0  9999
2 41599  97.4853 247.2801 0015074 115.1677  10.9399 15.19239626334875
SATHYABAMASAT           
1 41600U 16040B   22187.86520595  .00010603  00000+0  33086-3 0  9994
2 41600  97.2185 239.8295 0012319  59.4682 300.7775 15.33314291335870
LAPAN-A3                
1 41603U 16040E   22187.86215214  .00000753  00000+0  37145-4 0  9992
2 41603  97.2042 224.0443 0014947  92.3313  80.7012 15.20713873334987
BIROS                   
1 41604U 16040F   22187.69272410  .00002482  00000+0  10372-3 0  9998
2 41604  97.2092 231.3750 0013342  69.3563 290.9105 15.24444067335398
SWAYAM                  
1 41607U 16040J   22187.69656961  .00010091  00000+0  32426-3 0  9997
2 41607  97.2138 237.9202 0012301  61.0989 299.1486 15.32390309335729
BEESAT-4                
1 41619U 16040W   22187.58797471  .00008694  00000+0  28732-3 0  9991
2 41619  97.2151 237.7097 0010597  57.7590 302.4677 15.31547394323658
3CAT-2                  
1 41732U 16051B   22188.07136470  .00006786  00000+0  20934-3 0  9996
2 41732  97.3849 111.1596 0009495 212.8045 273.2236 15.33864780328331
PRATHAM                 
1 41783U 16059A   22187.84635660  .00000265  00000+0  59698-4 0  9995
2 41783  97.9118 228.6235 0034793 111.9448 248.5458 14.63371375308469
ALSAT 1N                
1 41789U 16059G   22187.82002144  .00000276  00000+0  60240-4 0  9991
2 41789  97.9138 233.2150 0029573  95.2030 265.2527 14.64706387308702
LISHUI 1-01             
1 41845U 16066E   22187.81908388  .00019439  00000+0  19569-2 0  9993
2 41845  98.7396 320.4177 0213485   8.0218 352.4319 14.75731158299685
CARTOSAT-2D             
1 41948U 17008A   22187.72590467  .00002110  00000+0  10340-3 0  9996
2 41948  97.4632 247.1560 0005347 253.5716 106.4928 15.19226617298720
NAYIF-1 (EO-88)         
1 42017U 17008BX  22187.92683756  .00011070  00000+0  32684-3 0  9990
2 42017  97.2676 253.7630 0005881 158.8225 201.3263 15.35117424300061
ZHUHAI-1 02 (CAS-4B)    
1 42759U 17034B   22187.61258963  .00001439  00000+0  95140-4 0  9991
2 42759  43.0169 227.0886 0008566  40.8460 100.6933 15.12016522279254
ZHUHAI-1 01 (CAS-4A)    
1 42761U 17034D   22187.85069255  .00001553  00000+0  10144-3 0  9991
2 42761  43.0165 224.5453 0008740  44.4971 125.8648 15.12103982279299
UCLSAT                  
1 42765U 17036A   22187.68307861  .00007248  00000+0  25094-3 0  9993
2 42765  97.1957 229.7479 0007424 248.7507 111.2942 15.30126675280796
NIUSAT                  
1 42766U 17036B   22187.73318031  .00005236  00000+0  20227-3 0  9999
2 42766  97.2004 224.8672 0011609 255.6171 104.3779 15.26614059279743
CARTOSAT-2E             
1 42767U 17036C   22188.15398269  .00002145  00000+0  10505-3 0  9992
2 42767  97.4526 248.3997 0006082 318.1391 120.4588 15.19234323279352
LITUANICASAT-2          
1 42768U 17036D   22187.88089463  .00016480  00000+0  46639-3 0  9999
2 42768  97.2041 232.8258 0009211 224.1482 135.9028 15.36329023280235
AALTO-1                 
1 42775U 17036L   22187.84620146  .00004313  00000+0  17112-3 0  9998
2 42775  97.1962 224.8675 0010588 254.5312 105.4757 15.25828285279732
URSA MAIOR              
1 42776U 17036M   22187.81995436  .00004694  00000+0  18280-3 0  9992
2 42776  97.1974 225.5896 0010258 252.9736 107.0379 15.26406280279764
COMPASS 2               
1 42777U 17036N   22187.88141375  .00011584  00000+0  36450-3 0  9990
2 42777  97.2030 232.1063 0008040 230.1489 129.9047 15.33069702280127
MAX VALIER SAT          
1 42778U 17036P   22188.11176568  .00005507  00000+0  20871-3 0  9998
2 42778  97.2037 228.5388 0008859 251.6067 108.4210 15.27252818279905
PEGASUS                 
1 42784U 17036V   22187.68194303  .00006856  00000+0  24427-3 0  9992
2 42784  97.1975 228.9931 0008212 253.7283 106.3054 15.29205691279953
NUDTSAT                 
1 42787U 17036Y   22187.93383293  .00012491  00000+0  37883-3 0  9993
2 42787  97.2009 233.4780 0007001 233.2056 126.8545 15.34228175280080
SUCHAI                  
1 42788U 17036Z   22187.85133694  .00008484  00000+0  28506-3 0  9992
2 42788  97.1982 230.8410 0007592 244.9182 115.1272 15.31048794280155
SKCUBE                  
1 42789U 17036AA  22187.85767592  .00007749  00000+0  26696-3 0  9994
2 42789  97.1980 230.2928 0007621 246.9080 113.1358 15.30263285280048
VZLUSAT-1               
1 42790U 17036AB  22187.87791721  .00011815  00000+0  36025-3 0  9995
2 42790  97.2008 233.3889 0006795 232.8634 127.1989 15.34074095280220
ROBUSTA-1B              
1 42792U 17036AD  22187.87216709  .00008390  00000+0  28416-3 0  9994
2 42792  97.1979 230.8826 0007191 246.0820 113.9669 15.30795973280090
D-SAT                   
1 42794U 17036AF  22187.72037373  .00001600  00000+0  13877-3 0  9990
2 42794  97.4507 192.1127 0123579  21.4960 339.1385 14.92716926274352
NORSAT 2                
1 42828U 17042D   22188.13266079  .00001198  00000+0  12056-3 0  9998
2 42828  97.4284  43.3913 0012584 302.4355  57.5648 14.92885125271083
TECHNOSAT               
1 42829U 17042E   22187.86943430  .00000861  00000+0  90182-4 0  9994
2 42829  97.4194  40.8735 0012665 306.8642  53.1416 14.91900308270988
2017-042F               
1 42830U 17042F   22187.87298470  .00002933  00000+0  27215-3 0  9992
2 42830  97.4335  45.3813 0011773 294.4250  65.5743 14.95100822271180
FLYING LAPTOP           
1 42831U 17042G   22187.71290057 -.00000023  00000+0  29103-5 0  9998
2 42831  97.4212  41.0488 0012663 308.1886  51.8187 14.91811280270961
CORVUS BC2              
1 42846U 17042X   22187.85296037  .00000493  00000+0  52577-4 0  9993
2 42846  97.4213  44.0632 0007925 297.0808  62.9604 14.92934851271179
CORVUS BC1              
1 42847U 17042Y   22188.13325450  .00000718  00000+0  73999-4 0  9999
2 42847  97.4215  44.6368 0007561 294.8007  65.2427 14.93039172271224
SIMPL                   
1 42983U 98067NF  22188.13414748  .00237365  37354-4  29965-3 0  9995
2 42983  51.6252  76.0480 0000866 167.5899 192.5135 16.07020969268090
CZ-4C R/B               
1 43012U 17072C   22187.85242761  .00000107  00000+0  33609-4 0  9994
2 43012  98.6958 224.8017 0126046 258.0783 100.6259 14.56357972246681
RADFXSAT (FOX-1B)       
1 43017U 17073E   22187.95984144  .00002180  00000+0  16632-3 0  9998
2 43017  97.6732  81.3550 0249643 123.7645 238.7623 14.81484745250003
EAGLESAT 1              
1 43018U 17073F   22187.67123443  .00004273  00000+0  30998-3 0  9991
2 43018  97.6761  82.9160 0242272 118.4952 244.0894 14.83768408249947
INS-1C                  
1 43116U 18004F   22188.13168402  .00006007  00000+0  20741-3 0  9993
2 43116  97.3752 264.0166 0005945 282.3542  77.7033 15.30313419249343
FLOCK 3P'-3             
1 43119U 18004J   22187.69516091  .00003305  00000+0  12631-3 0  9994
2 43119  97.3743 261.5306 0007397 299.9041  60.1463 15.27297617249154
FLOCK 3P'-2             
1 43120U 18004K   22187.70747901  .00003621  00000+0  13989-3 0  9992
2 43120  97.3749 261.1459 0007234 302.2607  57.7930 15.26876435249121
FLOCK 3P'-1             
1 43121U 18004L   22187.75409972  .00015301  00000+0  42048-3 0  9997
2 43121  97.3766 266.3595 0005033 263.5045  96.5627 15.37296764249407
FLOCK 3P'-4             
1 43122U 18004M   22187.69374589  .00003611  00000+0  13947-3 0  9993
2 43122  97.3757 261.3032 0007179 304.5968  55.4593 15.26882211249123
MICROMAS-2A             
1 43131U 18004W   22187.75804427  .00015003  00000+0  41683-3 0  9995
2 43131  97.3748 267.0909 0004485 271.1881  88.8850 15.36963436249541
PICSAT                  
1 43132U 18004X   22187.76626599  .00008719  00000+0  28622-3 0  9993
2 43132  97.3711 264.0425 0005707 290.7131  69.3498 15.31812983249362
CNUSAIL-1               
1 43133U 18004Y   22187.93600577  .00005557  00000+0  20058-3 0  9993
2 43133  97.3668 262.1056 0006477 297.5631  62.4951 15.28891085249272
2018-004Z               
1 43134U 18004Z   22187.78288454  .00006797  00000+0  23267-3 0  9995
2 43134  97.3693 263.3003 0005962 293.9021  66.1595 15.30543783249320
FOX-1D (AO-92)          
1 43137U 18004AC  22187.72173311  .00006016  00000+0  21177-3 0  9999
2 43137  97.3677 262.7077 0005888 297.1720  62.8920 15.29677337249289
STEP CUBE LAB           
1 43138U 18004AD  22187.77238706  .00012087  00000+0  35886-3 0  9992
2 43138  97.3746 266.4365 0004698 283.1085  76.9634 15.34932329249509
XIAOXIANG-2             
1 43155U 18008A   22188.17322814  .00004266  00000+0  22748-3 0  9997
2 43155  97.3512 245.9384 0017898  78.1986 358.9505 15.15556221246262
ZHOU ENLAI              
1 43156U 18008B   22187.86188450  .00004404  00000+0  23637-3 0  9991
2 43156  97.3559 245.5183 0015219  80.2081   1.0412 15.15346918246142
QUANTUTONG 1            
1 43158U 18008D   22188.11854675  .00003615  00000+0  20059-3 0  9999
2 43158  97.3517 243.7053 0014667  79.3630 338.1691 15.14274123246082
